
AGILA
1 62456U 24252C   26169.85374281 -.00000188  00000+0  00000+0 0  9996
2 62456   0.0619 127.0545 0001151 331.5839 267.9525  1.00270941  5178

ASTRA 1P (SES-24)
1 60086U 24115A   26169.61350912  .00000113  00000+0  00000+0 0  9997
2 60086   0.0576 354.9073 0000904 341.5376 170.4799  1.00269660  7210

DSN-3 (KIRAMEKI-3)
1 61733U 24198A   26170.20860102 -.00000256  00000+0  00000+0 0  9991
2 61733   0.0118  49.5085 0000473  46.7714  30.3105  1.00271232  5944

EUTELSAT 36D
1 59346U 24059A   26170.25847442  .00000149  00000+0  00000+0 0  9991
2 59346   0.0182  28.4335 0000142 163.0650 204.9050  1.00269869  8169

GALAXY 37 (G-37)
1 57493U 23112A   26170.32489160  .00000042  00000+0  00000+0 0  9990
2 57493   0.0039  36.6791 0002005  49.2765 171.5512  1.00271185 10563

GOES 19
1 60133U 24119A   26170.22732483 -.00000254  00000+0  00000+0 0  9997
2 60133   0.0407 169.2537 0000372 359.8716 104.9732  1.00270717  6984

GSAT-N2 (GSAT-20)
1 62028U 24214A   26170.20650098 -.00000025  00000+0  00000+0 0  9993
2 62028   0.0444 109.5851 0001891 327.7489 332.3855  1.00270303  5910

H2SAT (HEINRICH HERTZ)
1 57213U 23093A   26169.60986911 -.00000004  00000+0  00000+0 0  9992
2 57213   0.0587 104.5799 0000842  91.9025 290.6226  1.00270922 10938

HULIANWAN GAOGUI-01 (H*)
1 59069U 24040A   26169.04604534  .00000150  00000+0  00000+0 0  9993
2 59069   0.0671 331.6116 0002834  65.8323 278.9846  1.00271503  7336

HULIANWAN GAOGUI-02 (H*)
1 60327U 24135A   26168.51850487 -.00000179  00000+0  00000+0 0  9990
2 60327   0.0433   1.4713 0007308   5.2904 238.8047  1.00267686  7504

HULIANWAN GAOGUI-03 (H*)
1 61503U 24181A   26168.40600354 -.00000246  00000+0  00000+0 0  9997
2 61503   0.0466   2.9842 0001152  86.9142 244.7856  1.00271733  6823

INSAT-3DS
1 58990U 24033A   26170.05374661 -.00000162  00000+0  00000+0 0  9999
2 58990   0.0458 107.2334 0001101 328.7504 292.7453  1.00271092 47085

JUPITER 3 (ECHOSTAR 24)
1 57479U 23108A   26169.52351567  .00000000  00000+0  00000+0 0  9992
2 57479   0.0215 355.2271 0001266  87.4858 277.3015  1.00268776 10656

KOREASAT 6A
1 61910U 24206A   26169.98918135 -.00000368  00000+0  00000+0 0  9995
2 61910   0.0211  88.7926 0000792 332.4282 318.1093  1.00269676  5855

LUDI TANCE-4 01A
1 57624U 23120A   26169.05713873 -.00000180  00000+0  00000+0 0  9998
2 57624  15.1019 193.9396 0001150  43.3474 139.2590  1.00268641 10553

MERAH PUTIH 2
1 58995U 24035A   26170.27374779  .00000000  00000+0  00000+0 0  9990
2 58995   0.0160 358.4011 0001089  81.7200  38.8709  1.00266233  8616

NUSANTARA TIGA (SATRIA)
1 57045U 23086A   26169.99507472 -.00000242  00000+0  00000+0 0  9994
2 57045   0.0358 355.6492 0003095 351.8666  63.9333  1.00268106  9779

NUVIEW ALPHA
1 62455U 24252B   26170.26397505 -.00000222  00000+0  00000+0 0  9995
2 62455   0.0529  32.3585 0001089  35.0526 212.0367  1.00272445  3846

OPTUS-X (ADS-01)
1 62006U 24212A   26169.78323722 -.00000150  00000+0  00000+0 0  9998
2 62006   0.0164 300.6025 0001893 192.4521 212.2999  1.00270222  5777

OVZON-3
1 58698U 24003A   26169.88547941  .00000045  00000+0  00000+0 0  9992
2 58698   0.0089  64.5534 0000232 278.1031 302.9116  1.00274291  7466

PAKSAT-MM1
1 59915U 24104A   26169.97375462  .00000147  00000+0  00000+0 0  9997
2 59915   0.0346  88.1832 0002507 343.6472 224.1221  1.00268619  7540

SXM-9
1 62259U 24234A   26169.87800958 -.00000211  00000+0  00000+0 0  9991
2 62259   0.0124 350.0214 0005030 325.0221 182.9807  1.00271223  5593

SYRACUSE 4B
1 57214U 23093B   26170.10746517 -.00000060  00000+0  00000+0 0  9998
2 57214   0.0179  27.8668 0000249 148.0958 123.6146  1.00269493  6985

TJS-10
1 58204U 23169A   26168.80067502 -.00000256  00000+0  00000+0 0  9993
2 58204   2.5467  80.4827 0003814 110.1676  96.0447  1.00274368  9541

TJS-11
1 59020U 24037A   26170.24247522 -.00000371  00000+0  00000+0 0  9996
2 59020   4.1961 327.1248 0003186 106.6331  33.6230  1.00274737  8606

TJS-12
1 62374U 24246A   26170.09318727 -.00000238  00000+0  00000+0 0  9995
2 62374   0.6655 299.3845 0002073  83.0144  64.9988  1.00269206  5586

TURKSAT 6A
1 60233U 24127A   26170.18832183  .00000140  00000+0  00000+0 0  9993
2 60233   0.0505 188.7392 0001535 302.7949 245.6578  1.00271338  7034

YAOGAN-41
1 58582U 23197A   26170.27574112 -.00000368  00000+0  00000+0 0  9991
2 58582   3.1241 313.1887 0014045 193.6574 343.1097  1.00269196  9348

ZHONGXING-3A
1 60179U 24122A   26168.85938175 -.00000319  00000+0  00000+0 0  9995
2 60179   0.0418 104.0163 0001093  21.3241 191.7088  1.00271597  7316

ZHONGXING-4A
1 60606U 24151A   26170.27478779 -.00000368  00000+0  00000+0 0  9994
2 60606   1.3079 270.8111 0000086 161.3457  52.4950  1.00272667  6777

ZHONGXING-6E
1 58253U 23172A   26170.06033330 -.00000368  00000+0  00000+0 0  9998
2 58253   0.0431  89.4389 0002769 352.4664 322.6307  1.00270491  9677
